IRIDIUM 63              
1 25286U 98021B   25047.73922709  .00000648  00000+0  21488-3 0  9993
2 25286  86.4014 132.6654 0002016  94.3402 265.8025 14.36380212406554
IRIDIUM 69              
1 25319U 98026A   25047.77279041  .00001133  00000+0  34842-3 0  9991
2 25319  86.4031 146.2908 0004242  78.4512 281.7164 14.40759678405721
IRIDIUM 71              
1 25320U 98026B   25047.79630081  .00000887  00000+0  27010-3 0  9994
2 25320  86.4020 140.9985 0004150 110.2151 249.9495 14.40976092406252
IRIDIUM 73              
1 25344U 98032C   25047.84130428  .00001023  00000+0  25139-3 0  9996
2 25344  86.4378  97.9486 0002797  83.1972 276.9552 14.51433221413105
IRIDIUM 82              
1 25467U 98051A   25047.84239005  .00028843  00000+0  10142-2 0  9990
2 25467  86.3764 168.5332 0099212  32.1427 328.5814 15.24558270405571
